#cP2017  9 28  0  0  0.00000000      96 ORBIT IGS14 HLM  IGS
## 1968 345600.00000000   900.00000000 58024 0.0000000000000
+   32   G01G02G03G04G05G06G07G08G09G10G11G12G13G14G15G16G17
+        G18G19G20G21G22G23G24G25G26G27G28G29G30G31G32  0  0
+          0  0  0  0  0  0  0  0  0  0  0  0  0  0  0  0  0
+          0  0  0  0  0  0  0  0  0  0  0  0  0  0  0  0  0
+          0  0  0  0  0  0  0  0  0  0  0  0  0  0  0  0  0
++         2  2  2  0  2  2  2  2  2  2  2  2  2  2  2  2  2
++         2  2  2  2  2  3  2  2  2  2  2  2  2  2  2  0  0
++         0  0  0  0  0  0  0  0  0  0  0  0  0  0  0  0  0
++         0  0  0  0  0  0  0  0  0  0  0  0  0  0  0  0  0
++         0  0  0  0  0  0  0  0  0  0  0  0  0  0  0  0  0
%c G  cc GPS ccc cccc cccc cccc cccc ccccc ccccc ccccc ccccc
%c cc cc ccc ccc cccc cccc cccc cccc ccccc ccccc ccccc ccccc
%f  1.2500000  1.025000000  0.00000000000  0.000000000000000
%f  0.0000000  0.000000000  0.00000000000  0.000000000000000
%i    0    0    0    0      0      0      0      0         0
%i    0    0    0    0      0      0      0      0         0
/* FINAL ORBIT COMBINATION FROM WEIGHTED AVERAGE OF:        
/* cod emr esa gfz grg jpl mit ngs sio                      
/* REFERENCED TO GPS CLOCK AND TO WEIGHTED MEAN POLE:       
/* PCV:IGS14_1967 OL/AL:FES2004  NONE     Y  ORB:CMB CLK:CMB
*  2017  9 28  0 45  0.00000000
PG01 -14324.999730   4595.563412  21743.215609     -2.553837  5  8  5 118       
PG02  14317.824361  18126.418927 -12856.272595    319.852168  6  9  8 109       
PG03 -22123.442292  12325.072092   7917.085700    -62.786670  9  9  8 127       
PG04 -19729.496805 -13419.949521 -12386.782285 999999.999999                    
PG05  16270.231769   5042.355960 -20520.076631    -27.913388  8  7  9 120       
PG06   6795.286342  25596.788856  -1939.522097    400.703039  7  5  9  95       
PG07  -7639.433671  19480.902701 -15891.109276    300.498610  6  5  6  84       
PG08 -25789.444263  -5283.731724   3977.686488    -75.027806  4  6  8  71       
PG09 -13782.140300  10610.028395 -20103.300633    449.576520  6  7  6 104       
PG10   5013.961020 -20096.759359  16577.146258     75.583803  6  5  7  90       
PG11 -18057.616376    226.651161  18876.245655   -718.154482  8  8  6 132       
PG12  22384.434768  -8185.497765  11350.806438    371.223021  9  9  6  99       
PG13  23465.418693  12287.857428  -1854.470630    -92.024835  9  9  8  52       
PG14 -12638.995070 -17356.111996  16023.742802    -84.823324  7  7  7  80       
PG15  25968.326862   1749.594044   6041.252878   -356.193461  8  8  8  63       
PG16 -15056.709967  -6087.583911 -21234.095213     37.006564  8  7  6 132       
PG17   3302.608516  16358.063016  21066.311552   -154.264757  6  7  7 113       
PG18  12984.043186 -21695.953215   8406.603741    630.411040  9  9  6 104       
PG19  11616.546246  17066.637064  16296.083493   -484.059983 10  8  7  89       
PG20  21464.405919  -9658.741456 -12436.169250    487.985805 10  6  6  97       
PG21   3699.400759 -22632.224302 -12542.913660   -475.798903  7  4  7 109       
PG22 -21544.333531   5647.510523  14737.580673   -136.391162  9  9  8 103       
PG23 -22387.553381   3488.537942 -13939.988232   -217.701842 10  8  7  97       
PG24  15540.129781  -1723.622145  21394.955370    -40.216271  9  9  6 113       
PG25  19904.174440 -17401.494799    304.812948   -463.468410  8  5  8  95       
PG26  -6663.100591 -14280.243607 -21368.573477   -413.616575  8  8  4  92       
PG27 -22304.930195 -12574.818259  -7536.494300    330.493653  6  5  9 109       
PG28  -9547.357409  19911.333209  15395.265937    649.398411  7  5  6 108       
PG29  17438.456891  -6676.841649 -18893.580552    557.799821  8  7  6  99       
PG30   -914.092216  25647.265284  -6529.461502    138.043709  5  4  3  97       
PG31  -7630.167332 -24772.845204  -4647.667549    172.452048  8  8  6  86       
PG32  -6940.525897 -16651.868839  19538.350651   -506.076713  6  6  6  88       
*  2017  9 28  1  0  0.00000000
PG01 -14917.118822   2151.077590  21748.564314     -2.554998  5  8  4 116       
PG02  14488.979745  19537.822897 -10501.963489    319.843790  5  8  8 106       
PG03 -21520.921488  11424.850019  10504.654617    -62.782544  9  9  8 116       
PG04 -18223.542663 -13303.732558 -14600.802891 999999.999999                    
PG05  14630.853603   6755.545912 -21233.975426    -27.912279  7  7  8 114       
PG06   6580.937156  25710.924683    930.641563    400.705424  7  4  9  97       
PG07  -8252.308010  17596.757515 -17699.255728    300.494379  7  6  7  90       
PG08 -26003.695429  -5578.344924   1133.707857    -75.028518  4  5  8 112       
PG09 -15893.941910   9894.293217 -18871.215771    449.581827  6  7  5  99       
PG10   6428.733744 -21198.579478  14582.872094     75.592225  6  5  7  94       
PG11 -19226.052632  -1672.412014  17636.343347   -718.156565  8  8  6 131       
PG12  21371.540654  -7118.060577  13752.465910    371.221993 10  9  5  90       
PG13  23041.989328  12357.819019  -4696.414763    -92.025534  8  8  8  80       
PG14 -10826.838913 -16825.347485  17831.417864    -84.823945  7  7  6  82       
PG15  26445.923539   2166.998093   3340.170633   -356.193442  8  8  8  64       
PG16 -13189.613562  -7639.548950 -21931.834620     37.006632  8  7  5 128       
PG17   1048.979657  15623.434021  21842.455974   -154.262432  6  7  7 121       
PG18  13746.389465 -22008.590892   5770.372972    630.411222  9  9  6 102       
PG19   9685.537417  16451.726838  18083.215328   -484.058212 10  8  7  86       
PG20  20670.805254  -8320.435774 -14589.816216    487.986466  9  7  6  89       
PG21   4421.136147 -21086.078121 -14694.423100   -475.796106  7  4  7 110       
PG22 -20500.420458   4206.214138  16615.951036   -136.402673  9  9  8  85       
PG23 -23764.813626   2871.178939 -11697.896152   -217.702104 10  8  7  92       
PG24  16171.579753    641.708230  21007.764816    -40.217241  8  9  6 119       
PG25  19902.343527 -17086.539876   3195.145913   -463.474141  7  4  8  93       
PG26  -4897.869765 -15919.129414 -20668.469117   -413.606535  7  8  5 106       
PG27 -21296.962586 -12469.708290 -10166.594978    330.497913  5  5  9 110       
PG28 -10815.073709  20780.153356  13152.974279    649.400997  6  5  6 119       
PG29  19341.434819  -5878.728083 -17231.247398    557.795580  8  8  6  88       
PG30  -1359.547931  24809.175970  -9168.650043    138.041833  5  4  3 104       
PG31  -7443.326210 -25200.126769  -1790.746329    172.449711  8  7  6 101       
PG32  -4709.613681 -16117.868736  20617.564803   -506.081369  6  6  6  93       
*  2017  9 28  1 15  0.00000000
PG01 -15631.053359   -235.815800  21375.453789     -2.556113  6  8  3 111       
PG02  14638.289078  20673.078808  -7965.511723    319.835409  4  8  8 106       
PG03 -20772.937012  10287.556551  12910.886820    -62.778420  8  9  8 131       
PG04 -16480.857221 -13236.976449 -16572.250276 999999.999999                    
PG05  13038.587195   8595.055415 -21586.445694    -27.911255  7  6  7 115       
PG06   6276.817413  25526.471421   3784.782944    400.707958  7  4  9 104       
PG07  -9011.361372  15565.764480 -19193.271041    300.489822  8  6  7 103       
PG08 -25918.150131  -5793.003646  -1729.650398    -75.029946  4  5  8 109       
PG09 -17885.710403   9320.788150 -17315.217000    449.587142  6  7  4 105       
PG10   7621.918476 -22196.124485  12336.530691     75.600654  6  5  7  85       
PG11 -20368.035736  -3396.634211  16078.235881   -718.158362  7  8  6 131       
PG12  20231.091017  -5814.720421  15912.905430    371.220737 10  9  5  76       
PG13  22324.459306  12343.099102  -7457.580784    -92.025703  7  8  8  64       
PG14  -8812.650558 -16336.273187  19340.407782    -84.824907  8  6  5 101       
PG15  26641.038582   2512.947141    582.752386   -356.193952  8  8  8  84       
PG16 -11369.387298  -9337.267562 -22258.426195     37.006809  7  6  4 126       
PG17  -1306.889523  14999.157041  22255.798725   -154.260152  6  7  6 121       
PG18  14303.388498 -22124.331357   3035.129399    630.411800  9  9  6  93       
PG19   7546.465774  15883.032018  19549.718055   -484.056567 10  8  6  85       
PG20  19802.997129  -6766.543385 -16494.466504    487.987720  9  6  5 104       
PG21   5296.975550 -19351.908915 -16578.785274   -475.793564  8  5  7 106       
PG22 -19400.037209   2570.902405  18213.527522   -136.414215  8  9  8 111       
PG23 -24911.288390   2382.997932  -9256.315273   -217.702453 10  8  7  98       
PG24  16897.213046   2909.523863  20257.410275    -40.217231  8  9  5 111       
PG25  19694.986017 -16532.358587   6029.622182   -463.479869  7  4  8  95       
PG26  -3285.642104 -17573.726188 -19612.082447   -413.596437  7  7  5  89       
PG27 -20004.725254 -12357.687538 -12624.276082    330.502134  5  5  9  91       
PG28 -11841.946873  21543.178396  10691.982724    649.403584  6  5  6 115       
PG29  21088.598214  -5244.545507 -15272.468213    557.791529  9  8  6  86       
PG30  -1914.394302  23712.362796 -11648.679209    138.039848  5  5  3 102       
PG31  -7192.866408 -25319.202573   1097.786324    172.447664  9  7  6 101       
PG32  -2354.091630 -15677.908776  21343.213540   -506.086006  5  6  6  88       
EOF
